OBJECT_NAME,OBJECT_ID,EPOCH,MEAN_MOTION,ECCENTRICITY,INCLINATION,RA_OF_ASC_NODE,ARG_OF_PERICENTER,MEAN_ANOMALY,EPHEMERIS_TYPE,CLASSIFICATION_TYPE,NORAD_CAT_ID,ELEMENT_SET_NO,REV_AT_EPOCH,BSTAR,MEAN_MOTION_DOT,MEAN_MOTION_DDOT
LEMUR-2-ARIANNA,2025-009CU,2026-06-10T03:57:09.762912,15.02380057,.00034188,97.6888,242.6042,136.4974,223.6521,0,U,62699,999,7650,.57654952E-3,.7575E-4,0
LEMUR-2-ALISIA,2025-009DB,2026-06-10T00:15:30.064896,15.02668498,.00011681,97.6966,243.2296,189.1870,170.9334,0,U,62706,999,9908,.56199561E-3,.7438E-4,0
LEMUR-2-ROUNDTRIPPER,2025-009DG,2026-06-10T04:09:35.176320,15.03673882,.00045676,97.7247,243.8626,153.7422,206.4035,0,U,62711,999,7657,.6181091E-3,.8411E-4,0
LEMUR-2-MYNAMEISJEFF,2025-009DH,2026-06-10T04:07:21.836928,15.03687489,.00028133,97.7295,244.2378,179.4497,180.6731,0,U,62712,999,7657,.59455138E-3,.809E-4,0
LEMUR-2-LEIA-PHILIP,2025-052AN,2026-06-09T15:38:34.813248,14.97296809,.00020453,97.6847,52.7292,240.9218,119.1799,0,U,63246,999,6754,.18203018E-3,.2053E-4,0
LEMUR-2-LIA-MARTIN,2025-052AQ,2026-06-10T04:38:52.164384,14.97748989,.00024701,97.6915,53.7264,167.2621,192.8664,0,U,63248,999,6763,.4021904E-3,.4661E-4,0
LEMUR-2-DELOITTE-1,2025-052BB,2026-06-09T23:14:51.461952,14.97547354,.00026737,97.6923,53.8337,111.9368,248.2139,0,U,63259,999,6761,.30735724E-3,.3529E-4,0
LEMUR-2-EMERSONROSE,2025-052BD,2026-06-09T22:49:21.793152,14.99031408,.00022953,97.6905,54.3616,69.1361,291.0108,0,U,63261,999,6765,.26323858E-3,.3134E-4,0
LEMUR-2-MARACHE-FRAN,2025-052BE,2026-06-09T22:20:51.235584,15.00026128,.00061037,97.6951,54.6422,46.7960,313.3773,0,U,63262,999,6767,.45102628E-3,.5557E-4,0
LEMUR-2-THEFALCONER,2025-052BG,2026-06-09T22:15:10.744416,14.97344309,.00034919,97.6883,53.4211,55.9870,304.1683,0,U,63264,999,6760,.32947912E-3,.3768E-4,0
LEMUR-2-UNTITLED-SC,2025-061A,2026-06-10T05:06:11.988000,15.13422933,.00170838,97.5629,136.6253,291.3099,68.6308,0,U,63351,999,6653,.20284303E-3,.3568E-4,0
LEMUR-2-ESPERANZA,2025-061B,2026-06-10T04:33:53.509824,15.13517589,.00165923,97.5637,136.6951,290.8274,69.1180,0,U,63352,999,6653,.17116434E-3,.3008E-4,0
LEMUR-2-KREMPEL-BRO2,2025-061C,2026-06-09T21:19:45.585984,15.13949569,.00175301,97.5684,136.9196,283.4459,76.4818,0,U,63353,999,6650,.21109343E-3,.3773E-4,0
LEMUR-2-THERMORAPTOR,2025-061D,2026-06-10T04:50:20.237568,15.14031500,.00171753,97.5690,137.3051,281.2076,78.7225,0,U,63354,999,6655,.20605234E-3,.3689E-4,0
LEMUR-2-NEUROSPICY,2025-061E,2026-06-10T05:45:28.295712,15.14145542,.00150279,97.5615,136.9747,285.3271,74.6300,0,U,63355,999,6656,.17963447E-3,.3215E-4,0
LEMUR-2-TILLINFINITY,2025-061F,2026-06-09T21:09:21.310560,15.14729922,.00162367,97.5601,136.9040,273.2424,86.6950,0,U,63356,999,6653,.21498745E-3,.3928E-4,0
LEMUR-2-KREMPEL-BRO1,2025-061G,2026-06-10T04:25:29.726976,15.14537477,.00168304,97.5602,137.1232,273.4183,86.5124,0,U,63357,999,6657,.17323858E-3,.3135E-4,0
LEMUR-2-LANGER2SPACE,2025-061H,2026-06-09T21:05:51.812160,15.14232015,.00149448,97.5607,136.6366,284.7622,75.1953,0,U,63358,999,6651,.21594463E-3,.3888E-4,0
LEMUR-2-BALTO,2025-052BH,2026-06-10T04:22:54.511104,15.00010105,.00067092,97.6888,54.8741,75.2833,284.9133,0,U,63395,999,6771,.43347239E-3,.5336E-4,0
LEMUR-2-KRISH,2025-135AK,2026-06-10T02:51:19.700928,14.96138537,.00013728,97.7724,276.0451,108.0984,252.0386,0,U,64561,999,5286,.41845395E-3,.4653E-4,0
LEMUR-2-HUBBLE-4,2025-135AP,2026-06-10T02:24:07.965216,14.93177056,.00014557,97.7691,275.0926,349.4194,10.6995,0,U,64565,999,5281,.10884013E-3,.108E-4,0
LEMUR-2-SEJONG-2,2025-135BL,2026-06-10T05:14:09.148416,14.96646531,.00044131,97.7685,276.2878,11.3073,348.8247,0,U,64586,999,5290,.32573825E-3,.3657E-4,0
LEMUR-2-HUBBLE-5,2025-135BT,2026-06-10T01:24:24.388704,14.94113828,.0005633,97.7711,275.6737,18.0203,342.1216,0,U,64840,999,5284,.16965205E-3,.1757E-4,0
LEMUR-2-KARENDARRELL,2025-135BU,2026-06-10T01:08:14.659296,15.00007271,.00092074,97.7668,277.2688,229.7674,130.2744,0,U,64841,999,5294,.58559426E-3,.7233E-4,0
LEMUR-2-LUCILLE-ROSE,2025-135BV,2026-06-09T06:54:08.182944,15.00053411,.00106985,97.7767,276.5201,313.8437,46.1901,0,U,65403,999,4745,.48608724E-3,.6001E-4,0
LEMUR-2-AFFIE-WAUWIE,2025-248C,2026-06-10T06:03:03.285504,15.26939127,.00083685,45.3855,152.5549,38.3394,321.8088,0,U,66295,999,3353,.48614038E-3,.12829E-3,0
LEMUR-2-DEANANDMAEVE,2025-276N,2026-06-10T03:18:08.315136,15.19646421,.00063832,97.4212,234.7305,37.7484,322.4197,0,U,66678,999,2934,.29867792E-3,.6304E-4,0
LEMUR-2-STAS-GORBUK,2025-276W,2026-06-10T03:36:42.857856,15.19305724,.00058068,97.4248,234.7986,37.9658,322.1985,0,U,66686,999,2934,.26378743E-3,.5503E-4,0
LEMUR-2-TEODOR,2025-276DG,2026-06-10T04:59:11.524992,15.20974318,.0001935,97.4152,235.0827,122.3325,237.8098,0,U,66768,999,2938,.2490742E-3,.5451E-4,0
