LEMUR-2-ARIANNA         
1 62699U 25009CU  26161.16469633  .00007575  00000+0  57655-3 0  9996
2 62699  97.6888 242.6042 0003418 136.4974 223.6521 15.02380057 76500
LEMUR-2-ALISIA          
1 62706U 25009DB  26161.01076464  .00007438  00000+0  56200-3 0  9998
2 62706  97.6966 243.2296 0001168 189.1870 170.9334 15.02668498 99086
LEMUR-2-ROUNDTRIPPER    
1 62711U 25009DG  26161.17332380  .00008411  00000+0  61811-3 0  9999
2 62711  97.7247 243.8626 0004567 153.7422 206.4035 15.03673882 76570
LEMUR-2-MYNAMEISJEFF    
1 62712U 25009DH  26161.17178052  .00008090  00000+0  59455-3 0  9998
2 62712  97.7295 244.2378 0002813 179.4497 180.6731 15.03687489 76576
LEMUR-2-LEIA-PHILIP     
1 63246U 25052AN  26160.65179182  .00002053  00000+0  18203-3 0  9995
2 63246  97.6847  52.7292 0002045 240.9218 119.1799 14.97296809 67542
LEMUR-2-LIA-MARTIN      
1 63248U 25052AQ  26161.19365931  .00004661  00000+0  40219-3 0  9995
2 63248  97.6915  53.7264 0002470 167.2621 192.8664 14.97748989 67631
LEMUR-2-DELOITTE-1      
1 63259U 25052BB  26160.96865118  .00003529  00000+0  30736-3 0  9998
2 63259  97.6923  53.8337 0002673 111.9368 248.2139 14.97547354 67617
LEMUR-2-EMERSONROSE     
1 63261U 25052BD  26160.95094668  .00003134  00000+0  26324-3 0  9994
2 63261  97.6905  54.3616 0002295  69.1361 291.0108 14.99031408 67659
LEMUR-2-MARACHE-FRAN    
1 63262U 25052BE  26160.93114856  .00005557  00000+0  45103-3 0  9992
2 63262  97.6951  54.6422 0006103  46.7960 313.3773 15.00026128 67671
LEMUR-2-THEFALCONER     
1 63264U 25052BG  26160.92720769  .00003768  00000+0  32948-3 0  9994
2 63264  97.6883  53.4211 0003491  55.9870 304.1683 14.97344309 67609
LEMUR-2-UNTITLED-SC     
1 63351U 25061A   26161.21263875  .00003568  00000+0  20284-3 0  9992
2 63351  97.5629 136.6253 0017083 291.3099  68.6308 15.13422933 66530
LEMUR-2-ESPERANZA       
1 63352U 25061B   26161.19020266  .00003008  00000+0  17116-3 0  9994
2 63352  97.5637 136.6951 0016592 290.8274  69.1180 15.13517589 66534
LEMUR-2-KREMPEL-BRO2    
1 63353U 25061C   26160.88872206  .00003773  00000+0  21109-3 0  9995
2 63353  97.5684 136.9196 0017530 283.4459  76.4818 15.13949569 66500
LEMUR-2-THERMORAPTOR    
1 63354U 25061D   26161.20162312  .00003689  00000+0  20605-3 0  9999
2 63354  97.5690 137.3051 0017175 281.2076  78.7225 15.14031500 66559
LEMUR-2-NEUROSPICY      
1 63355U 25061E   26161.23991083  .00003215  00000+0  17963-3 0  9996
2 63355  97.5615 136.9747 0015027 285.3271  74.6300 15.14145542 66562
LEMUR-2-TILLINFINITY    
1 63356U 25061F   26160.88149665  .00003928  00000+0  21499-3 0  9998
2 63356  97.5601 136.9040 0016236 273.2424  86.6950 15.14729922 66534
LEMUR-2-KREMPEL-BRO1    
1 63357U 25061G   26161.18437184  .00003135  00000+0  17324-3 0  9991
2 63357  97.5602 137.1232 0016830 273.4183  86.5124 15.14537477 66574
LEMUR-2-LANGER2SPACE    
1 63358U 25061H   26160.87907190  .00003888  00000+0  21594-3 0  9995
2 63358  97.5607 136.6366 0014944 284.7622  75.1953 15.14232015 66517
LEMUR-2-BALTO           
1 63395U 25052BH  26161.18257536  .00005336  00000+0  43347-3 0  9993
2 63395  97.6888  54.8741 0006709  75.2833 284.9133 15.00010105 67717
LEMUR-2-KRISH           
1 64561U 25135AK  26161.11897802  .00004653  00000+0  41845-3 0  9992
2 64561  97.7724 276.0451 0001372 108.0984 252.0386 14.96138537 52862
LEMUR-2-HUBBLE-4        
1 64565U 25135AP  26161.10009219  .00001080  00000+0  10884-3 0  9992
2 64565  97.7691 275.0926 0001455 349.4194  10.6995 14.93177056 52816
LEMUR-2-SEJONG-2        
1 64586U 25135BL  26161.21816144  .00003657  00000+0  32574-3 0  9992
2 64586  97.7685 276.2878 0004413  11.3073 348.8247 14.96646531 52907
LEMUR-2-HUBBLE-5        
1 64840U 25135BT  26161.05861561  .00001757  00000+0  16965-3 0  9995
2 64840  97.7711 275.6737 0005633  18.0203 342.1216 14.94113828 52843
LEMUR-2-KARENDARRELL    
1 64841U 25135BU  26161.04739189  .00007233  00000+0  58559-3 0  9995
2 64841  97.7668 277.2688 0009207 229.7674 130.2744 15.00007271 52947
LEMUR-2-LUCILLE-ROSE    
1 65403U 25135BV  26160.28759471  .00006001  00000+0  48609-3 0  9998
2 65403  97.7767 276.5201 0010698 313.8437  46.1901 15.00053411 47450
LEMUR-2-AFFIE-WAUWIE    
1 66295U 25248C   26161.25212136  .00012829  00000+0  48614-3 0  9994
2 66295  45.3855 152.5549 0008368  38.3394 321.8088 15.26939127 33535
LEMUR-2-DEANANDMAEVE    
1 66678U 25276N   26161.13759624  .00006304  00000+0  29868-3 0  9996
2 66678  97.4212 234.7305 0006383  37.7484 322.4197 15.19646421 29342
LEMUR-2-STAS-GORBUK     
1 66686U 25276W   26161.15049604  .00005503  00000+0  26379-3 0  9991
2 66686  97.4248 234.7986 0005806  37.9658 322.1985 15.19305724 29349
LEMUR-2-TEODOR          
1 66768U 25276DG  26161.20777228  .00005451  00000+0  24907-3 0  9995
2 66768  97.4152 235.0827 0001935 122.3325 237.8098 15.20974318 29385
